ONEWEB-0588             
1 55153U 23004P   25244.92876607 -.00000251  00000+0 -66881-3 0  9991
2 55153  87.9157  32.7361 0001857 110.3384 249.7948 13.18686225131708
ONEWEB-0598             
1 55154U 23004Q   25244.98736103  .00000631  00000+0  17452-2 0  9993
2 55154  87.8772  78.5063 0001075  93.1878 266.9373 13.11418294128123
ONEWEB-0599             
1 55155U 23004R   25244.99900397  .00000096  00000+0  21292-3 0  9996
2 55155  87.9034  63.2030 0001572  86.7971 273.3341 13.17647643129536
ONEWEB-0614             
1 55156U 23004S   25244.98227652  .00000459  00000+0  12579-2 0  9992
2 55156  87.8773  78.5174 0001971  92.4847 267.6507 13.11418503128065
ONEWEB-0616             
1 55157U 23004T   25245.04120058 -.00000004  00000+0 -44070-4 0  9994
2 55157  87.9036  63.1854 0001679  54.9546 305.1743 13.17650657129759
ONEWEB-0617             
1 55158U 23004U   25245.04670229  .00000023  00000+0  30235-4 0  9992
2 55158  87.8774  78.4827 0001812  97.6760 262.4574 13.11418553128092
ONEWEB-0618             
1 55159U 23004V   25245.25003472 -.00030238  00000+0 -44392-2 0  9996
2 55159  86.9072 293.7315 0011097 273.2296 316.6505 14.75789199  5740
ONEWEB-0619             
1 55160U 23004W   25244.99732190  .00000087  00000+0  19070-3 0  9997
2 55160  87.9034  63.1691 0002194  83.8054 276.3328 13.17647500129647
